[{"OBJECT_NAME":"STARLINK-2704","OBJECT_ID":"2021-044F","EPOCH":"2026-03-09T09:27:41.169600","MEAN_MOTION":15.30192842,"ECCENTRICITY":0.00013596,"INCLINATION":53.1594,"RA_OF_ASC_NODE":115.2316,"ARG_OF_PERICENTER":88.4412,"MEAN_ANOMALY":271.6745,"EPHEMERIS_TYPE":0,"CLASSIFICATION_TYPE":"U","NORAD_CAT_ID":48643,"ELEMENT_SET_NO":999,"REV_AT_EPOCH":26378,"BSTAR":-1.478891e-6,"MEAN_MOTION_DOT":-4.03e-6,"MEAN_MOTION_DDOT":0},{"OBJECT_NAME":"YAOGAN-36 04C","OBJECT_ID":"2022-171E","EPOCH":"2026-03-09T18:55:44.889600","MEAN_MOTION":15.29852307,"ECCENTRICITY":0.00066848,"INCLINATION":34.9797,"RA_OF_ASC_NODE":96.6578,"ARG_OF_PERICENTER":275.3761,"MEAN_ANOMALY":84.6192,"EPHEMERIS_TYPE":0,"CLASSIFICATION_TYPE":"U","NORAD_CAT_ID":54750,"ELEMENT_SET_NO":999,"REV_AT_EPOCH":18024,"BSTAR":0.00054591902,"MEAN_MOTION_DOT":0.00016196,"MEAN_MOTION_DDOT":0}]
